OBJECT_NAME,OBJECT_ID,EPOCH,MEAN_MOTION,ECCENTRICITY,INCLINATION,RA_OF_ASC_NODE,ARG_OF_PERICENTER,MEAN_ANOMALY,EPHEMERIS_TYPE,CLASSIFICATION_TYPE,NORAD_CAT_ID,ELEMENT_SET_NO,REV_AT_EPOCH,BSTAR,MEAN_MOTION_DOT,MEAN_MOTION_DDOT
STARLINK-36577,2026-016Y,2026-06-01T02:26:04.174944,15.33451969,.00008759,97.2833,212.4303,73.9299,286.2040,0,U,67583,999,1965,.70629403E-3,.22801E-3,0
STARLINK-36419,2026-016Z,2026-06-01T02:41:44.073024,15.33438842,.00005918,97.2846,212.4188,318.4102,41.7096,0,U,67584,999,1965,.62656504E-3,.20203E-3,0
STARLINK-36560,2026-016AA,2026-06-01T03:48:17.829216,15.33460785,.00020338,97.2853,212.3573,76.2256,283.9213,0,U,67585,999,1965,.72200033E-3,.23318E-3,0
NAVSTAR 85 (USA 581),2026-017A,2026-05-30T05:58:41.591136,2.00571628,.00226083,55.0776,89.4749,256.9258,102.7871,0,U,67588,999,43125,0,-.43E-6,0
STARLINK-36641,2026-018A,2026-06-01T03:44:06.901152,15.33436809,.00007161,97.2853,217.1544,76.6435,283.4888,0,U,67589,999,2012,.10305473E-3,.3252E-4,0
STARLINK-36376,2026-018B,2026-06-01T03:16:42.449952,15.33430467,.00010103,97.2841,217.1800,116.0228,244.1119,0,U,67590,999,2012,.53694231E-3,.17291E-3,0
STARLINK-36391,2026-018C,2026-05-31T17:05:54.796992,15.33444066,.00012439,97.2843,216.6892,85.7780,274.3605,0,U,67591,999,2005,.72956919E-3,.23551E-3,0
STARLINK-36603,2026-018D,2026-06-01T03:08:52.305216,15.33457039,.00005295,97.2855,217.1905,76.7884,283.3417,0,U,67592,999,2012,.61717822E-3,.1991E-3,0
STARLINK-36634,2026-018E,2026-06-01T03:01:01.968672,15.33465695,.00012006,97.2843,217.1953,45.2721,314.8620,0,U,67593,999,2012,.67961233E-3,.21943E-3,0
STARLINK-36638,2026-018F,2026-05-31T16:58:05.287296,15.33432462,.00023071,97.2841,216.6930,68.5938,291.5551,0,U,67594,999,2005,.80965349E-3,.26145E-3,0
STARLINK-36628,2026-018G,2026-06-01T03:24:31.849920,15.33451363,.00001195,97.2848,217.1729,82.9222,277.2034,0,U,67595,999,2012,.6207724E-3,.20023E-3,0
STARLINK-36629,2026-018H,2026-06-01T03:36:16.599168,15.33452074,.0001142,97.2840,217.1611,81.9676,278.1696,0,U,67596,999,2012,.12025995E-2,.38959E-3,0
STARLINK-36384,2026-018J,2026-06-01T04:11:30.522048,15.33463832,.00011642,97.2831,217.2809,107.2615,252.8755,0,U,67597,999,2013,.77544029E-3,.25057E-3,0
STARLINK-36358,2026-018K,2026-05-31T18:04:38.080992,15.33430894,.00002609,97.2853,216.7809,152.5110,207.6147,0,U,67598,999,2006,.748491E-5,.167E-5,0
STARLINK-36582,2026-018L,2026-06-01T03:04:57.281664,15.33456401,.00011714,97.2863,217.1935,103.0513,257.0860,0,U,67599,999,2017,.77887011E-3,.25163E-3,0
STARLINK-36640,2026-018M,2026-05-31T18:08:33.063936,15.33459667,.00002224,97.2839,216.7815,107.8102,252.3165,0,U,67600,999,2006,.78043198E-3,.25216E-3,0
STARLINK-36635,2026-018N,2026-06-01T02:45:22.951008,15.33444013,.00007337,97.2837,217.2117,51.1283,309.0025,0,U,67601,999,2012,.73920708E-3,.23864E-3,0
STARLINK-36631,2026-018P,2026-06-01T04:07:35.865696,15.33461430,.00016393,97.2827,217.2849,69.4028,290.7390,0,U,67602,999,2013,.68450291E-3,.221E-3,0
STARLINK-36626,2026-018Q,2026-05-31T17:33:19.076256,15.33447717,.00018204,97.2815,216.8134,112.5529,247.5907,0,U,67603,999,2006,.47358262E-3,.15247E-3,0
STARLINK-36605,2026-018R,2026-06-01T03:20:36.663936,15.33453731,.00008156,97.2843,217.1760,116.0914,244.0412,0,U,67604,999,2012,.10787712E-2,.34922E-3,0
STARLINK-36281,2026-018S,2026-06-01T03:48:01.969632,15.33419616,.00008275,97.2856,217.1546,71.7307,288.4026,0,U,67605,999,2012,.10386168E-2,.33578E-3,0
STARLINK-35843,2026-018T,2026-05-31T17:48:58.305600,15.33445750,.00008121,97.2840,216.7989,134.5548,225.5761,0,U,67606,999,2006,-.44881896E-4,-.1524E-4,0
STARLINK-36351,2026-018U,2026-05-31T17:29:23.946432,15.33451944,.00012076,97.2830,216.8161,127.3261,232.8092,0,U,67607,999,2006,.32830153E-3,.10541E-3,0
STARLINK-36411,2026-018V,2026-06-01T03:51:56.003040,15.33455403,.00014281,97.2827,217.1471,98.3014,261.8391,0,U,67608,999,2012,.64020599E-3,.20657E-3,0
STARLINK-36312,2026-018W,2026-05-31T17:25:29.601984,15.33455418,.00015936,97.2829,216.8208,72.3057,287.8360,0,U,67609,999,2006,.12636407E-2,.40956E-3,0
STARLINK-36387,2026-018X,2026-06-01T03:37:18.505632,15.75251449,.00010681,97.2829,222.2006,97.8169,262.3218,0,U,67610,999,2045,.15263685E-2,.234524E-2,0
STARLINK-36636,2026-018Y,2026-05-31T17:01:58.979424,15.33451286,.00011039,97.2841,216.6904,214.3941,145.7231,0,U,67611,999,2005,-.86704268E-4,-.2874E-4,0
STARLINK-36407,2026-018Z,2026-06-01T02:41:28.075200,15.33456638,.00008962,97.2847,217.2174,68.9661,291.1678,0,U,67612,999,2017,.94937812E-3,.3071E-3,0
STARLINK-36597,2026-018AA,2026-06-01T03:40:11.171712,15.33452590,.00005439,97.2838,217.1598,261.6021,98.5160,0,U,67613,999,2012,.92923099E-3,.3005E-3,0
NEONSAT-1A,2026-019A,2026-05-31T22:00:37.672416,15.08327901,.00117105,97.4255,272.6255,244.9925,115.0088,0,U,67614,999,1836,.20314034E-3,.3096E-4,0
