STARLINK-36577          
1 67583U 26016Y   26152.10143720  .00022801  00000+0  70629-3 0  9997
2 67583  97.2833 212.4303 0000876  73.9299 286.2040 15.33451969 19657
STARLINK-36419          
1 67584U 26016Z   26152.11231566  .00020203  00000+0  62657-3 0  9991
2 67584  97.2846 212.4188 0000592 318.4102  41.7096 15.33438842 19658
STARLINK-36560          
1 67585U 26016AA  26152.15853969  .00023318  00000+0  72200-3 0  9998
2 67585  97.2853 212.3573 0002034  76.2256 283.9213 15.33460785 19658
NAVSTAR 85 (USA 581)    
1 67588U 26017A   26150.24909249 -.00000043  00000+0  00000+0 0  9999
2 67588  55.0776  89.4749 0022608 256.9258 102.7871  2.00571628431254
STARLINK-36641          
1 67589U 26018A   26152.15563543  .00003252  00000+0  10305-3 0  9993
2 67589  97.2853 217.1544 0000716  76.6435 283.4888 15.33436809 20128
STARLINK-36376          
1 67590U 26018B   26152.13660242  .00017291  00000+0  53694-3 0  9993
2 67590  97.2841 217.1800 0001010 116.0228 244.1119 15.33430467 20124
STARLINK-36391          
1 67591U 26018C   26151.71243977  .00023551  00000+0  72957-3 0  9998
2 67591  97.2843 216.6892 0001244  85.7780 274.3605 15.33444066 20053
STARLINK-36603          
1 67592U 26018D   26152.13116094  .00019910  00000+0  61718-3 0  9992
2 67592  97.2855 217.1905 0000530  76.7884 283.3417 15.33457039 20123
STARLINK-36634          
1 67593U 26018E   26152.12571722  .00021943  00000+0  67961-3 0  9990
2 67593  97.2843 217.1953 0001201  45.2721 314.8620 15.33465695 20124
STARLINK-36638          
1 67594U 26018F   26151.70700564  .00026145  00000+0  80965-3 0  9990
2 67594  97.2841 216.6930 0002307  68.5938 291.5551 15.33432462 20050
STARLINK-36628          
1 67595U 26018G   26152.14203529  .00020023  00000+0  62077-3 0  9992
2 67595  97.2848 217.1729 0000120  82.9222 277.2034 15.33451363 20123
STARLINK-36629          
1 67596U 26018H   26152.15019212  .00038959  00000+0  12026-2 0  9993
2 67596  97.2840 217.1611 0001142  81.9676 278.1696 15.33452073 20126
STARLINK-36384          
1 67597U 26018J   26152.17465882  .00025057  00000+0  77544-3 0  9996
2 67597  97.2831 217.2809 0001164 107.2615 252.8755 15.33463832 20137
STARLINK-36358          
1 67598U 26018K   26151.75321852  .00000167  00000+0  74849-5 0  9990
2 67598  97.2853 216.7809 0000261 152.5110 207.6147 15.33430893 20062
STARLINK-36582          
1 67599U 26018L   26152.12844075  .00025163  00000+0  77887-3 0  9996
2 67599  97.2863 217.1935 0001171 103.0513 257.0860 15.33456401 20174
STARLINK-36640          
1 67600U 26018M   26151.75593823  .00025216  00000+0  78043-3 0  9993
2 67600  97.2839 216.7815 0000222 107.8102 252.3165 15.33459667 20065
STARLINK-36635          
1 67601U 26018N   26152.11484897  .00023864  00000+0  73921-3 0  9992
2 67601  97.2837 217.2117 0000734  51.1283 309.0025 15.33444013 20125
STARLINK-36631          
1 67602U 26018P   26152.17194288  .00022100  00000+0  68450-3 0  9994
2 67602  97.2827 217.2849 0001639  69.4028 290.7390 15.33461430 20135
STARLINK-36626          
1 67603U 26018Q   26151.73147079  .00015247  00000+0  47358-3 0  9990
2 67603  97.2815 216.8134 0001820 112.5529 247.5907 15.33447717 20061
STARLINK-36605          
1 67604U 26018R   26152.13931323  .00034922  00000+0  10788-2 0  9996
2 67604  97.2843 217.1760 0000816 116.0914 244.0412 15.33453731 20126
STARLINK-36281          
1 67605U 26018S   26152.15835612  .00033578  00000+0  10386-2 0  9993
2 67605  97.2856 217.1546 0000827  71.7307 288.4026 15.33419616 20125
STARLINK-35843          
1 67606U 26018T   26151.74234149 -.00001524  00000+0 -44882-4 0  9994
2 67606  97.2840 216.7989 0000812 134.5548 225.5761 15.33445750 20063
STARLINK-36351          
1 67607U 26018U   26151.72874938  .00010541  00000+0  32830-3 0  9995
2 67607  97.2830 216.8161 0001208 127.3261 232.8092 15.33451944 20068
STARLINK-36411          
1 67608U 26018V   26152.16106485  .00020657  00000+0  64021-3 0  9996
2 67608  97.2827 217.1471 0001428  98.3014 261.8391 15.33455403 20125
STARLINK-36312          
1 67609U 26018W   26151.72603705  .00040956  00000+0  12636-2 0  9993
2 67609  97.2829 216.8208 0001594  72.3057 287.8360 15.33455418 20068
STARLINK-36387          
1 67610U 26018X   26152.15090862  .00234524  00000+0  15264-2 0  9993
2 67610  97.2829 222.2006 0001068  97.8169 262.3218 15.75251449 20456
STARLINK-36636          
1 67611U 26018Y   26151.70971041 -.00002874  00000+0 -86704-4 0  9993
2 67611  97.2841 216.6904 0001104 214.3941 145.7231 15.33451286 20050
STARLINK-36407          
1 67612U 26018Z   26152.11213050  .00030710  00000+0  94938-3 0  9994
2 67612  97.2847 217.2174 0000896  68.9661 291.1678 15.33456638 20172
STARLINK-36597          
1 67613U 26018AA  26152.15290707  .00030050  00000+0  92923-3 0  9992
2 67613  97.2838 217.1598 0000544 261.6021  98.5160 15.33452590 20127
NEONSAT-1A              
1 67614U 26019A   26151.91710269  .00003096  00000+0  20314-3 0  9992
2 67614  97.4255 272.6255 0011711 244.9925 115.0088 15.08327901 18360
